[
    [
        {
            "CCSDS_OMM_VERS": "3.0",
            "COMMENT": "GENERATED VIA SPACE-TRACK.ORG API",
            "CREATION_DATE": "2025-08-05T02:25:14",
            "ORIGINATOR": "18 SPCS",
            "OBJECT_NAME": "CXO",
            "OBJECT_ID": "1999-040B",
            "CENTER_NAME": "EARTH",
            "REF_FRAME": "TEME",
            "TIME_SYSTEM": "UTC",
            "MEAN_ELEMENT_THEORY": "SGP4",
            "EPOCH": "2025-08-07T16:26:16.350144",
            "MEAN_MOTION": "0.37796433",
            "ECCENTRICITY": "0.83406620",
            "INCLINATION": "50.5084",
            "RA_OF_ASC_NODE": "127.5403",
            "ARG_OF_PERICENTER": "310.0269",
            "MEAN_ANOMALY": "0.7400",
            "EPHEMERIS_TYPE": "0",
            "CLASSIFICATION_TYPE": "U",
            "NORAD_CAT_ID": "25867",
            "ELEMENT_SET_NO": "999",
            "REV_AT_EPOCH": "1613",
            "BSTAR": "0.00000000000000",
            "MEAN_MOTION_DOT": "0.00000921",
            "MEAN_MOTION_DDOT": "0.0000000000000",
            "SEMIMAJOR_AXIS": "80804.329",
            "PERIOD": "3809.883",
            "APOAPSIS": "141822.355",
            "PERIAPSIS": "7030.034",
            "OBJECT_TYPE": "PAYLOAD",
            "RCS_SIZE": "LARGE",
            "COUNTRY_CODE": "US",
            "LAUNCH_DATE": "1999-07-23",
            "SITE": "AFETR",
            "DECAY_DATE": null,
            "FILE": "4805841",
            "GP_ID": "294298331",
            "TLE_LINE0": "0 CXO",
            "TLE_LINE1": "1 25867U 99040B   25219.68491146  .00000921  00000-0  00000-0 0  9990",
            "TLE_LINE2": "2 25867  50.5084 127.5403 8340662 310.0269   0.7400  0.37796433 16138"
        },
        {
            "CCSDS_OMM_VERS": "3.0",
            "COMMENT": "GENERATED VIA SPACE-TRACK.ORG API",
            "CREATION_DATE": "2025-08-04T06:46:17",
            "ORIGINATOR": "18 SPCS",
            "OBJECT_NAME": "CLUSTER II-FM7",
            "OBJECT_ID": "2000-041A",
            "CENTER_NAME": "EARTH",
            "REF_FRAME": "TEME",
            "TIME_SYSTEM": "UTC",
            "MEAN_ELEMENT_THEORY": "SGP4",
            "EPOCH": "2025-08-06T10:11:57.209280",
            "MEAN_MOTION": "0.44812260",
            "ECCENTRICITY": "0.84895850",
            "INCLINATION": "145.2683",
            "RA_OF_ASC_NODE": "14.7337",
            "ARG_OF_PERICENTER": "230.1308",
            "MEAN_ANOMALY": "359.4076",
            "EPHEMERIS_TYPE": "0",
            "CLASSIFICATION_TYPE": "U",
            "NORAD_CAT_ID": "26410",
            "ELEMENT_SET_NO": "999",
            "REV_AT_EPOCH": "3065",
            "BSTAR": "0.00000000000000",
            "MEAN_MOTION_DOT": "0.00002906",
            "MEAN_MOTION_DDOT": "0.0000000000000",
            "SEMIMAJOR_AXIS": "72133.545",
            "PERIOD": "3213.406",
            "APOAPSIS": "126993.796",
            "PERIAPSIS": "4517.024",
            "OBJECT_TYPE": "PAYLOAD",
            "RCS_SIZE": "LARGE",
            "COUNTRY_CODE": "ESA",
            "LAUNCH_DATE": "2000-07-16",
            "SITE": "TTMTR",
            "DECAY_DATE": null,
            "FILE": "4805020",
            "GP_ID": "294242056",
            "TLE_LINE0": "0 CLUSTER II-FM7",
            "TLE_LINE1": "1 26410U 00041A   25218.42496770  .00002906  00000-0  00000+0 0  9991",
            "TLE_LINE2": "2 26410 145.2683  14.7337 8489585 230.1308 359.4076  0.44812260 30658"
        },
        {
            "CCSDS_OMM_VERS": "3.0",
            "COMMENT": "GENERATED VIA SPACE-TRACK.ORG API",
            "CREATION_DATE": "2025-08-04T06:46:17",
            "ORIGINATOR": "18 SPCS",
            "OBJECT_NAME": "CLUSTER II-FM8",
            "OBJECT_ID": "2000-045B",
            "CENTER_NAME": "EARTH",
            "REF_FRAME": "TEME",
            "TIME_SYSTEM": "UTC",
            "MEAN_ELEMENT_THEORY": "SGP4",
            "EPOCH": "2025-08-06T04:47:27.215520",
            "MEAN_MOTION": "0.44422349",
            "ECCENTRICITY": "0.84947950",
            "INCLINATION": "145.5536",
            "RA_OF_ASC_NODE": "15.1994",
            "ARG_OF_PERICENTER": "230.4458",
            "MEAN_ANOMALY": "359.4269",
            "EPHEMERIS_TYPE": "0",
            "CLASSIFICATION_TYPE": "U",
            "NORAD_CAT_ID": "26464",
            "ELEMENT_SET_NO": "999",
            "REV_AT_EPOCH": "6656",
            "BSTAR": "0.00000000000000",
            "MEAN_MOTION_DOT": "0.00003004",
            "MEAN_MOTION_DDOT": "0.0000000000000",
            "SEMIMAJOR_AXIS": "72555.025",
            "PERIOD": "3241.612",
            "APOAPSIS": "127810.896",
            "PERIAPSIS": "4542.884",
            "OBJECT_TYPE": "PAYLOAD",
            "RCS_SIZE": "LARGE",
            "COUNTRY_CODE": "ESA",
            "LAUNCH_DATE": "2000-08-09",
            "SITE": "TTMTR",
            "DECAY_DATE": null,
            "FILE": "4805021",
            "GP_ID": "294241408",
            "TLE_LINE0": "0 CLUSTER II-FM8",
            "TLE_LINE1": "1 26464U 00045B   25218.19962055  .00003004  00000-0  00000+0 0  9992",
            "TLE_LINE2": "2 26464 145.5536  15.1994 8494795 230.4458 359.4269  0.44422349 66567"
        },
        {
            "CCSDS_OMM_VERS": "3.0",
            "COMMENT": "GENERATED VIA SPACE-TRACK.ORG API",
            "CREATION_DATE": "2025-08-03T17:22:22",
            "ORIGINATOR": "18 SPCS",
            "OBJECT_NAME": "XMM",
            "OBJECT_ID": "1999-066A",
            "CENTER_NAME": "EARTH",
            "REF_FRAME": "TEME",
            "TIME_SYSTEM": "UTC",
            "MEAN_ELEMENT_THEORY": "SGP4",
            "EPOCH": "2025-08-05T05:37:27.548832",
            "MEAN_MOTION": "0.50136291",
            "ECCENTRICITY": "0.48156290",
            "INCLINATION": "66.0287",
            "RA_OF_ASC_NODE": "287.1621",
            "ARG_OF_PERICENTER": "70.4330",
            "MEAN_ANOMALY": "0.0906",
            "EPHEMERIS_TYPE": "0",
            "CLASSIFICATION_TYPE": "U",
            "NORAD_CAT_ID": "25989",
            "ELEMENT_SET_NO": "999",
            "REV_AT_EPOCH": "2142",
            "BSTAR": "0.00000000000000",
            "MEAN_MOTION_DOT": "0.00000159",
            "MEAN_MOTION_DDOT": "0.0000000000000",
            "SEMIMAJOR_AXIS": "66931.985",
            "PERIOD": "2872.171",
            "APOAPSIS": "92785.811",
            "PERIAPSIS": "28321.889",
            "OBJECT_TYPE": "PAYLOAD",
            "RCS_SIZE": "LARGE",
            "COUNTRY_CODE": "ESA",
            "LAUNCH_DATE": "1999-12-10",
            "SITE": "FRGUI",
            "DECAY_DATE": null,
            "FILE": "4804517",
            "GP_ID": "294175311",
            "TLE_LINE0": "0 XMM",
            "TLE_LINE1": "1 25989U 99066A   25217.23434663  .00000159  00000-0  00000-0 0  9996",
            "TLE_LINE2": "2 25989  66.0287 287.1621 4815629  70.4330   0.0906  0.50136291 21424"
        }
    ]
]